STARLINK-5726           
1 55608U 23020AR  26068.13202028  .00001819  00000+0  14968-3 0  9990
2 55608  43.0058 354.8477 0001673 265.2776  94.7876 15.02536254168982
PICO-02A021             
1 60538U 24149BY  26068.15390193  .00008488  00000+0  64833-3 0  9999
2 60538  97.6823 147.9080 0004195   9.5557 350.5747 15.02201963 84718
